GLOBALSTAR M094         
1 39074U 13005C   24341.91794669 -.00000086  00000+0  97193-4 0  9994
2 39074  51.9979  47.5193 0000630 151.9349 208.1552 12.62265872548095
GLOBALSTAR M096         
1 39075U 13005D   24341.85195609 -.00000087  00000+0  95938-4 0  9993
2 39075  52.0069  96.0832 0001000 132.5944 227.5007 12.62265306547007
GLOBALSTAR M078         
1 39076U 13005E   24341.90422109 -.00000099  00000+0  24694-4 0  9992
2 39076  51.9840 180.6944 0001886 102.4494 257.6584 12.62267417545631
GLOBALSTAR M095         
1 39077U 13005F   24341.85187717 -.00000096  00000+0  40701-4 0  9994
2 39077  51.9773 178.1493 0001485 109.3373 250.7654 12.62269402545486
GLOBALSTAR M087         
1 52888U 22064A   24341.69623493 -.00000061  00000+0  13738-3 0  9993
2 52888  51.9777 327.8787 0035648  32.1256 328.1804 13.30672161120599
